EUTELSAT 8 WEST B       
1 40875U 15039B   25283.17544766 -.00000067  00000+0  00000+0 0  9994
2 40875   0.0683 355.7500 0003754 205.0214 233.4330  1.00271335 37157
EUTELSAT 9B             
1 41310U 16005A   25283.13557913  .00000060  00000+0  00000+0 0  9999
2 41310   0.0656  65.6302 0003619 166.3315 204.8438  1.00271798 35602
EUTELSAT 65 WEST A      
1 41382U 16014A   25283.11489185 -.00000278  00000+0  00000+0 0  9993
2 41382   0.0766  42.7401 0002326 161.2350 151.1849  1.00272629 35026
EUTELSAT 117 WEST B     
1 41589U 16038B   25283.17033714 -.00000013  00000+0  00000+0 0  9994
2 41589   0.0107  71.5312 0000419  24.3373 227.5007  1.00271741 34151
EUTELSAT 172B           
1 42741U 17029B   25283.23923293 -.00000007  00000+0  00000+0 0  9996
2 42741   0.0201 161.7833 0000205  95.2902  20.1582  1.00271469 31222
EUTELSAT 7C             
1 44334U 19034B   25283.13523245  .00000047  00000+0  00000+0 0  9999
2 44334   0.0647 185.6454 0003366   0.7489 248.2993  1.00270663  4327
EUTELSAT 5 WEST B       
1 44624U 19067A   25283.16988997 -.00000044  00000+0  00000+0 0  9997
2 44624   0.0666  15.5592 0003319 190.4009 229.2456  1.00270587 21931
EUTELSAT KONNECT        
1 45027U 20005B   25283.13523245  .00000047  00000+0  00000+0 0  9999
2 45027   0.0661  93.0042 0001554 127.6542 214.2282  1.00267336 21814
